FENGYUN 3D              
1 43010U 17072A   26192.88396691 -.00000193  00000+0 -69291-4 0  9990
2 43010  99.0137 167.7538 0001704  21.8692 338.2556 14.19743824448490
NOAA 20 (JPSS-1)        
1 43013U 17073A   26192.81250225  .00000015  00000+0  28073-4 0  9993
2 43013  98.7774 132.0569 0001261 127.6862 232.4429 14.19516081447965
GOES 17                 
1 43226U 18022A   26192.83232931 -.00000180  00000+0  00000+0 0  9999
2 43226   0.9976  85.3070 0000543  96.7368 317.8350  1.00273239 30674
SENTINEL-3B             
1 43437U 18039A   26192.17410468  .00000038  00000+0  33847-4 0  9992
2 43437  98.6238 259.3610 0001054 120.7417 239.3868 14.26741288427541
FENGYUN 2H              
1 43491U 18050A   26192.86577146 -.00000126  00000+0  00000+0 0  9997
2 43491   3.0910  78.7852 0002265 132.1773 109.6653  1.00267554 29687
METOP-C                 
1 43689U 18087A   26192.84435542  .00000032  00000+0  34298-4 0  9993
2 43689  98.6632 251.9957 0002218  98.2696 261.8733 14.21518425398336
GEO-KOMPSAT-2A          
1 43823U 18100A   26192.80416250 -.00000339  00000+0  00000+0 0  9990
2 43823   0.0255 118.0813 0001947 343.4761 245.9138  1.00271415 27872
METEOR-M2 2             
1 44387U 19038A   26192.90101781 -.00000161  00000+0 -49605-4 0  9991
2 44387  98.9156 180.5521 0000937   9.7493 350.3703 14.24371653364818
ARKTIKA-M 1             
1 47719U 21016A   26188.42887598 -.00000257  00000+0  00000+0 0  9997
2 47719  63.2524  54.6812 7295086 270.0380  14.5466  2.00614486 39194
FENGYUN 3E              
1 49008U 21062A   26192.86510508 -.00000220  00000+0 -82859-4 0  9996
2 49008  98.7501 195.9977 0002414  45.2741 314.8631 14.19905093260087
GOES 18                 
1 51850U 22021A   26192.75163609  .00000101  00000+0  00000+0 0  9993
2 51850   0.0131  84.2137 0000611 110.7307 228.2976  1.00272566  6830
NOAA 21 (JPSS-2)        
1 54234U 22150A   26192.84485433  .00000002  00000+0  21747-4 0  9993
2 54234  98.7061 131.2199 0002750 110.5667 249.5805 14.19540735190043
METEOSAT-12 (MTG-I1)    
1 54743U 22170C   26192.85003051 -.00000004  00000+0  00000+0 0  9990
2 54743   0.7214  19.1046 0003787  82.8397 133.5456  1.00267004 13227
TIANMU-1 03             
1 55973U 23039A   26192.81382889  .00009343  00000+0  18073-3 0  9993
2 55973  97.5236   7.7610 0002854  35.9510 324.1932 15.47979254184646
TIANMU-1 04             
1 55974U 23039B   26192.85823091  .00009849  00000+0  18634-3 0  9997
2 55974  97.5171   6.9631 0003338  25.5625 334.5790 15.48601765184668
TIANMU-1 05             
1 55975U 23039C   26192.79580281  .00009584  00000+0  18584-3 0  9992
2 55975  97.5216   7.3482 0003262  54.7596 305.3958 15.47902026184626
TIANMU-1 06             
1 55976U 23039D   26192.79857328  .00009762  00000+0  18539-3 0  9990
2 55976  97.5224   8.0118 0003367  47.2244 312.9289 15.48497889184654
FENGYUN 3G              
1 56232U 23055A   26192.61838501  .00013307  00000+0  21077-3 0  9998
2 56232  49.9910 220.0356 0007129  39.8490 320.3000 15.53679919183805
METEOR-M2 3             
1 57166U 23091A   26192.83078059 -.00000026  00000+0  74055-5 0  9994
2 57166  98.6070 247.3032 0005150  97.8305 262.3459 14.24048714158023
TIANMU-1 07             
1 57399U 23101A   26192.88822669  .00003752  00000+0  13138-3 0  9994
2 57399  97.2585 242.9913 0003955  71.3352 288.8318 15.30090954165426
TIANMU-1 08             
1 57400U 23101B   26192.85480185  .00003766  00000+0  13183-3 0  9992
2 57400  97.2573 242.7258 0004894  55.3151 304.8551 15.30094676165410
TIANMU-1 09             
1 57401U 23101C   26192.83765144  .00003764  00000+0  13160-3 0  9995
2 57401  97.2532 242.1121 0004561  72.2402 287.9336 15.30134567165413
TIANMU-1 10             
1 57402U 23101D   26192.87113685  .00003804  00000+0  13307-3 0  9995
2 57402  97.2611 243.2205 0005898  63.2008 296.9836 15.30108220165415
FENGYUN 3F              
1 57490U 23111A   26192.84842916 -.00000002  00000+0  19321-4 0  9997
2 57490  98.6826 262.3965 0001332  77.9120 282.2206 14.19943052152361
ARKTIKA-M 2             
1 58584U 23198A   26191.19028483  .00000186  00000+0  00000+0 0  9990
2 58584  63.2187 151.7914 6909064 267.3543  18.7503  2.00608615 18787
TIANMU-1 11             
1 58645U 23205A   26192.88743444  .00003271  00000+0  12522-3 0  9999
2 58645  97.3443 214.0595 0006766 277.0784  82.9686 15.27242842141299
TIANMU-1 12             
1 58646U 23205B   26192.85946747  .00003467  00000+0  13326-3 0  9998
2 58646  97.3432 213.7802 0005593 249.8364 110.2274 15.27073711141276
TIANMU-1 13             
1 58647U 23205C   26192.89289330  .00003397  00000+0  13067-3 0  9995
2 58647  97.3460 214.0919 0005466 226.4572 133.6214 15.27066447141273
TIANMU-1 14             
1 58648U 23205D   26192.87738082  .00003350  00000+0  12869-3 0  9995
2 58648  97.3396 213.2391 0006134 234.4524 125.6144 15.27110322141271
TIANMU-1 19             
1 58660U 23208A   26192.84974171  .00004987  00000+0  16425-3 0  9999
2 58660  97.4520 309.2839 0004264 211.2477 148.8512 15.31942899141105
TIANMU-1 20             
1 58661U 23208B   26192.86840764  .00004955  00000+0  15726-3 0  9990
2 58661  97.4462 309.9636 0006040 225.4027 134.6723 15.33131944141206
